{"type": "FeatureCollection", "features": [ {"type": "Feature", "properties": {"norad_id": 39122, "name": "EUTELSAT 117 WEST A", "group": "eutelsat", "lat": -0.04016065492019026, "lon": -65.08484638090411, "alt_km": 35775.25583362615, "timestamp": "2025-12-17T21:39:45.379850+00:00", "meta": {"OBJECT_NAME": "EUTELSAT 117 WEST A", "OBJECT_ID": "2013-012A", "EPOCH": "2025-12-17T14:05:26.245248", "MEAN_MOTION": 1.00272769, "ECCENTRICITY": 0.00027231, "INCLINATION": 0.0259, "RA_OF_ASC_NODE": 41.9855, "ARG_OF_PERICENTER": 229.0714, "MEAN_ANOMALY": 269.9656, "EPHEMERIS_TYPE": 0, "CLASSIFICATION_TYPE": "U", "NORAD_CAT_ID": 39122, "ELEMENT_SET_NO": 999, "REV_AT_EPOCH": 4661, "BSTAR": 0, "MEAN_MOTION_DOT": 1.2e-07, "MEAN_MOTION_DDOT": 0}, "tle": {"line1": "1 39122U 13012A   25351.58710932  .00000012  00000+0  00000+0 0  9996", "line2": "2 39122   0.0259  41.9855 0002723 229.0714 269.9656  1.00272769 46610"}}, "geometry": {"type": "Point", "coordinates": [-65.08484638090411, -0.04016065492019026]}}, {"type": "Feature", "properties": {"norad_id": 39163, "name": "EUTELSAT 7B", "group": "eutelsat", "lat": 0.0846038100083236, "lon": 58.75701347744183, "alt_km": 35789.13929848612, "timestamp": "2025-12-17T21:39:45.379861+00:00", "meta": {"OBJECT_NAME": "EUTELSAT 7B", "OBJECT_ID": "2013-022A", "EPOCH": "2025-12-17T13:21:22.372416", "MEAN_MOTION": 1.00270007, "ECCENTRICITY": 0.00042526, "INCLINATION": 0.0652, "RA_OF_ASC_NODE": 353.0262, "ARG_OF_PERICENTER": 327.6164, "MEAN_ANOMALY": 333.1437, "EPHEMERIS_TYPE": 0, "CLASSIFICATION_TYPE": "U", "NORAD_CAT_ID": 39163, "ELEMENT_SET_NO": 999, "REV_AT_EPOCH": 4612, "BSTAR": 0, "MEAN_MOTION_DOT": 7.3e-07, "MEAN_MOTION_DDOT": 0}, "tle": {"line1": "1 39163U 13022A   25351.55650894  .00000073  00000+0  00000+0 0  9996", "line2": "2 39163   0.0652 353.0262 0004252 327.6164 333.1437  1.00270007 46124"}}, "geometry": {"type": "Point", "coordinates": [58.75701347744183, 0.0846038100083236]}}, {"type": "Feature", "properties": {"norad_id": 39612, "name": "EXPRESS-AT1", "group": "eutelsat", "lat": 0.012023443996726503, "lon": 107.69644800968882, "alt_km": 35784.195645028536, "timestamp": "2025-12-17T21:39:45.379872+00:00", "meta": {"OBJECT_NAME": "EXPRESS-AT1", "OBJECT_ID": "2014-010A", "EPOCH": "2025-12-17T15:18:18.673632", "MEAN_MOTION": 1.00270736, "ECCENTRICITY": 5.52e-05, "INCLINATION": 0.0117, "RA_OF_ASC_NODE": 286.7085, "ARG_OF_PERICENTER": 203.2276, "MEAN_ANOMALY": 242.1533, "EPHEMERIS_TYPE": 0, "CLASSIFICATION_TYPE": "U", "NORAD_CAT_ID": 39612, "ELEMENT_SET_NO": 999, "REV_AT_EPOCH": 4299, "BSTAR": 0, "MEAN_MOTION_DOT": 1.04e-06, "MEAN_MOTION_DDOT": 0}, "tle": {"line1": "1 39612U 14010A   25351.63771613  .00000104  00000+0  00000+0 0  9990", "line2": "2 39612   0.0117 286.7085 0000552 203.2276 242.1533  1.00270736 42992"}}, "geometry": {"type": "Point", "coordinates": [107.69644800968882, 0.012023443996726503]}}, {"type": "Feature", "properties": {"norad_id": 39613, "name": "EXPRESS-AT2", "group": "eutelsat", "lat": -0.027094303634164995, "lon": -168.45665656092385, "alt_km": 35786.287551438465, "timestamp": "2025-12-17T21:39:45.379883+00:00", "meta": {"OBJECT_NAME": "EXPRESS-AT2", "OBJECT_ID": "2014-010B", "EPOCH": "2025-12-17T17:55:46.752960", "MEAN_MOTION": 1.0027236, "ECCENTRICITY": 0.0001011, "INCLINATION": 0.0165, "RA_OF_ASC_NODE": 290.5295, "ARG_OF_PERICENTER": 355.8411, "MEAN_ANOMALY": 209.0485, "EPHEMERIS_TYPE": 0, "CLASSIFICATION_TYPE": "U", "NORAD_CAT_ID": 39613, "ELEMENT_SET_NO": 999, "REV_AT_EPOCH": 4268, "BSTAR": 0, "MEAN_MOTION_DOT": -2.56e-06, "MEAN_MOTION_DDOT": 0}, "tle": {"line1": "1 39613U 14010B   25351.74706890 -.00000256  00000+0  00000+0 0  9997", "line2": "2 39613   0.0165 290.5295 0001011 355.8411 209.0485  1.00272360 42687"}}, "geometry": {"type": "Point", "coordinates": [-168.45665656092385, -0.027094303634164995]}}, {"type": "Feature", "properties": {"norad_id": 39773, "name": "EUTELSAT 3B", "group": "eutelsat", "lat": 0.07329429555498893, "lon": 54.785720806010225, "alt_km": 35803.916685543496, "timestamp": "2025-12-17T21:39:45.379893+00:00", "meta": {"OBJECT_NAME": "EUTELSAT 3B", "OBJECT_ID": "2014-030A", "EPOCH": "2025-12-17T13:20:29.956128", "MEAN_MOTION": 1.00271989, "ECCENTRICITY": 0.00042439, "INCLINATION": 0.0601, "RA_OF_ASC_NODE": 359.766, "ARG_OF_PERICENTER": 232.0618, "MEAN_ANOMALY": 57.8161, "EPHEMERIS_TYPE": 0, "CLASSIFICATION_TYPE": "U", "NORAD_CAT_ID": 39773, "ELEMENT_SET_NO": 999, "REV_AT_EPOCH": 4224, "BSTAR": 0, "MEAN_MOTION_DOT": 4.5e-07, "MEAN_MOTION_DDOT": 0}, "tle": {"line1": "1 39773U 14030A   25351.55590227  .00000045  00000+0  00000+0 0  9995", "line2": "2 39773   0.0601 359.7660 0004243 232.0618  57.8161  1.00271989 42246"}}, "geometry": {"type": "Point", "coordinates": [54.785720806010225, 0.07329429555498893]}}, {"type": "Feature", "properties": {"norad_id": 40425, "name": "EUTELSAT 115 WEST B", "group": "eutelsat", "lat": 0.011613483737087333, "lon": -63.20003504660161, "alt_km": 35785.1338977521, "timestamp": "2025-12-17T21:39:45.379904+00:00", "meta": {"OBJECT_NAME": "EUTELSAT 115 WEST B", "OBJECT_ID": "2015-010B", "EPOCH": "2025-12-17T12:06:39.780576", "MEAN_MOTION": 1.00272091, "ECCENTRICITY": 2.165e-05, "INCLINATION": 0.0082, "RA_OF_ASC_NODE": 151.3795, "ARG_OF_PERICENTER": 123.7729, "MEAN_ANOMALY": 237.9925, "EPHEMERIS_TYPE": 0, "CLASSIFICATION_TYPE": "U", "NORAD_CAT_ID": 40425, "ELEMENT_SET_NO": 999, "REV_AT_EPOCH": 3957, "BSTAR": 0, "MEAN_MOTION_DOT": 0, "MEAN_MOTION_DDOT": 0}, "tle": {"line1": "1 40425U 15010B   25351.50462709  .00000000  00000+0  00000+0 0  9999", "line2": "2 40425   0.0082 151.3795 0000216 123.7729 237.9925  1.00272091 39571"}}, "geometry": {"type": "Point", "coordinates": [-63.20003504660161, 0.011613483737087333]}}, {"type": "Feature", "properties": {"norad_id": 40875, "name": "EUTELSAT 8 WEST B", "group": "eutelsat", "lat": 0.07319530950303359, "lon": 43.74738628709108, "alt_km": 35799.18838758168, "timestamp": "2025-12-17T21:39:45.379914+00:00", "meta": {"OBJECT_NAME": "EUTELSAT 8 WEST B", "OBJECT_ID": "2015-039B", "EPOCH": "2025-12-17T13:17:07.778400", "MEAN_MOTION": 1.00271857, "ECCENTRICITY": 0.00043117, "INCLINATION": 0.0638, "RA_OF_ASC_NODE": 351.1029, "ARG_OF_PERICENTER": 276.7024, "MEAN_ANOMALY": 9.919, "EPHEMERIS_TYPE": 0, "CLASSIFICATION_TYPE": "U", "NORAD_CAT_ID": 40875, "ELEMENT_SET_NO": 999, "REV_AT_EPOCH": 3783, "BSTAR": 0, "MEAN_MOTION_DOT": -4.1e-07, "MEAN_MOTION_DDOT": 0}, "tle": {"line1": "1 40875U 15039B   25351.55356225 -.00000041  00000+0  00000+0 0  9995", "line2": "2 40875   0.0638 351.1029 0004311 276.7024   9.9190  1.00271857 37831"}}, "geometry": {"type": "Point", "coordinates": [43.74738628709108, 0.07319530950303359]}}, {"type": "Feature", "properties": {"norad_id": 41310, "name": "EUTELSAT 9B", "group": "eutelsat", "lat": 0.014842455612337066, "lon": 60.716573850757605, "alt_km": 35801.9558725365, "timestamp": "2025-12-17T21:39:45.379925+00:00", "meta": {"OBJECT_NAME": "EUTELSAT 9B", "OBJECT_ID": "2016-005A", "EPOCH": "2025-12-17T13:22:07.300416", "MEAN_MOTION": 1.00271839, "ECCENTRICITY": 0.00044778, "INCLINATION": 0.0563, "RA_OF_ASC_NODE": 69.7701, "ARG_OF_PERICENTER": 203.988, "MEAN_ANOMALY": 22.1929, "EPHEMERIS_TYPE": 0, "CLASSIFICATION_TYPE": "U", "NORAD_CAT_ID": 41310, "ELEMENT_SET_NO": 999, "REV_AT_EPOCH": 3629, "BSTAR": 0, "MEAN_MOTION_DOT": 8.6e-07, "MEAN_MOTION_DDOT": 0}, "tle": {"line1": "1 41310U 16005A   25351.55702894  .00000086  00000+0  00000+0 0  9999", "line2": "2 41310   0.0563  69.7701 0004477 203.9880  22.1929  1.00271839 36293"}}, "geometry": {"type": "Point", "coordinates": [60.716573850757605, 0.014842455612337066]}}, {"type": "Feature", "properties": {"norad_id": 41382, "name": "EUTELSAT 65 WEST A", "group": "eutelsat", "lat": 0.02311206439056976, "lon": -13.48849767789177, "alt_km": 35783.26838932956, "timestamp": "2025-12-17T21:39:45.379935+00:00", "meta": {"OBJECT_NAME": "EUTELSAT 65 WEST A", "OBJECT_ID": "2016-014A", "EPOCH": "2025-12-17T13:00:54.332064", "MEAN_MOTION": 1.0027016, "ECCENTRICITY": 0.00023136, "INCLINATION": 0.0567, "RA_OF_ASC_NODE": 325.7518, "ARG_OF_PERICENTER": 310.6139, "MEAN_ANOMALY": 300.0673, "EPHEMERIS_TYPE": 0, "CLASSIFICATION_TYPE": "U", "NORAD_CAT_ID": 41382, "ELEMENT_SET_NO": 999, "REV_AT_EPOCH": 3571, "BSTAR": 0, "MEAN_MOTION_DOT": -2.51e-06, "MEAN_MOTION_DDOT": 0}, "tle": {"line1": "1 41382U 16014A   25351.54229551 -.00000251  00000+0  00000+0 0  9996", "line2": "2 41382   0.0567 325.7518 0002313 310.6139 300.0673  1.00270160 35713"}}, "geometry": {"type": "Point", "coordinates": [-13.48849767789177, 0.02311206439056976]}}, {"type": "Feature", "properties": {"norad_id": 41589, "name": "EUTELSAT 117 WEST B", "group": "eutelsat", "lat": 0.00972130825939432, "lon": -65.28945690576353, "alt_km": 35784.92257291949, "timestamp": "2025-12-17T21:39:45.379945+00:00", "meta": {"OBJECT_NAME": "EUTELSAT 117 WEST B", "OBJECT_ID": "2016-038B", "EPOCH": "2025-12-17T11:09:38.705184", "MEAN_MOTION": 1.00272667, "ECCENTRICITY": 2.539e-05, "INCLINATION": 0.0126, "RA_OF_ASC_NODE": 156.3845, "ARG_OF_PERICENTER": 104.8947, "MEAN_ANOMALY": 235.4811, "EPHEMERIS_TYPE": 0, "CLASSIFICATION_TYPE": "U", "NORAD_CAT_ID": 41589, "ELEMENT_SET_NO": 999, "REV_AT_EPOCH": 3484, "BSTAR": 0, "MEAN_MOTION_DOT": 1.3e-07, "MEAN_MOTION_DDOT": 0}, "tle": {"line1": "1 41589U 16038B   25351.46503131  .00000013  00000+0  00000+0 0  9996", "line2": "2 41589   0.0126 156.3845 0000253 104.8947 235.4811  1.00272667 34847"}}, "geometry": {"type": "Point", "coordinates": [-65.28945690576353, 0.00972130825939432]}}]}